{
    "links": {
        "self": "http://www.neowsapp.com/rest/v1/neo/3564144?api_key=iIulBulltgU6a56xZRHN4H3l9WmuAYTsLGpBGhQ2"
    },
    "id": "3564144",
    "neo_reference_id": "3564144",
    "name": "(2011 HC24)",
    "designation": "2011 HC24",
    "nasa_jpl_url": "http://ssd.jpl.nasa.gov/sbdb.cgi?sstr=3564144",
    "absolute_magnitude_h": 24.3,
    "estimated_diameter": {
        "kilometers": {
            "estimated_diameter_min": 0.0366906138,
            "estimated_diameter_max": 0.0820427065
        },
        "meters": {
            "estimated_diameter_min": 36.6906137531,
            "estimated_diameter_max": 82.0427064882
        },
        "miles": {
            "estimated_diameter_min": 0.0227984834,
            "estimated_diameter_max": 0.0509789586
        },
        "feet": {
            "estimated_diameter_min": 120.3760332259,
            "estimated_diameter_max": 269.1689931548
        }
    },
    "is_potentially_hazardous_asteroid": false,
    "close_approach_data": [
        {
            "close_approach_date": "2011-05-12",
            "close_approach_date_full": "2011-May-12 13:20",
            "epoch_date_close_approach": 1305206400000,
            "relative_velocity": {
                "kilometers_per_second": "15.411757383",
                "kilometers_per_hour": "55482.3265787294",
                "miles_per_hour": "34474.5600899889"
            },
            "miss_distance": {
                "astronomical": "0.0151734112",
                "lunar": "5.9024569568",
                "kilometers": "2269909.996154144",
                "miles": "1410456.6678654272"
            },
            "orbiting_body": "Earth"
        }
    ],
    "orbital_data": {
        "orbit_id": "14",
        "orbit_determination_date": "2017-04-06 08:53:36",
        "first_observation_date": "2011-04-28",
        "last_observation_date": "2011-05-11",
        "data_arc_in_days": 13,
        "observations_used": 58,
        "orbit_uncertainty": "8",
        "minimum_orbit_intersection": ".000935928",
        "jupiter_tisserand_invariant": "3.624",
        "epoch_osculation": "2455685.5",
        "eccentricity": ".6074040804838308",
        "semi_major_axis": "1.964833415280475",
        "inclination": "1.987963991517955",
        "ascending_node_longitude": "228.5226185779788",
        "orbital_period": "1005.974634094407",
        "perihelion_distance": ".7713855813681334",
        "perihelion_argument": "69.55404517654328",
        "aphelion_distance": "3.158281249192817",
        "perihelion_time": "2455738.351502475938",
        "mean_anomaly": "341.0864605860906",
        "mean_motion": ".3578619060549943",
        "equinox": "J2000",
        "orbit_class": {
            "orbit_class_type": "APO",
            "orbit_class_description": "Near-Earth asteroid orbits which cross the Earth’s orbit similar to that of 1862 Apollo",
            "orbit_class_range": "a (semi-major axis) > 1.0 AU; q (perihelion) < 1.017 AU"
        }
    },
    "is_sentry_object": false
}